NORAD_CAT_ID,OBJECT_NAME,OBJECT_TYPE,EPOCH,MEAN_MOTION,ECCENTRICITY,INCLINATION,RA_OF_ASC_NODE,ARG_OF_PERICENTER,MEAN_ANOMALY,BSTAR,MEAN_MOTION_DOT,MEAN_MOTION_DDOT,TLE_LINE0,TLE_LINE1,TLE_LINE2,SEMIMAJOR_AXIS,PERIOD,APOGEE,PERIGEE,DECAYED
53292.0,STARLINK-4159,PAYLOAD,2023-05-08 19:17:59,15.08841178,0.0001212,53.2145,154.5713,89.1111,271.002,7.1701e-05,8.53e-06,0.0,0 STARLINK-4159,1 53292U 22086BC  23128.80416590  .00000853  00000-0  71701-4 0  9994,2 53292  53.2145 154.5713 0001212  89.1111 271.0020 15.08841178 44807,6917.877,95.437,540.58,538.903,0.0
53292.0,STARLINK-4159,PAYLOAD,2023-05-09 04:50:18,15.08843199,0.0001205,53.2145,152.7869,89.0228,271.0902,0.00010254,1.345e-05,0.0,0 STARLINK-4159,1 53292U 22086BC  23129.20160462  .00001345  00000-0  10254-3 0  9995,2 53292  53.2145 152.7869 0001205  89.0228 271.0902 15.08843199 44702,6917.871,95.437,540.569,538.902,0.0
53292.0,STARLINK-4159,PAYLOAD,2023-05-09 06:25:41,15.088461,0.0001187,53.2157,152.4896,90.0383,270.0745,7.0164e-05,8.29e-06,0.0,0 STARLINK-4159,1 53292U 22086BC  23129.26784200  .00000829  00000-0  70164-4 0  9996,2 53292  53.2157 152.4896 0001187  90.0383 270.0745 15.08846100 44872,6917.862,95.437,540.548,538.906,0.0
53292.0,STARLINK-4159,PAYLOAD,2023-05-10 07:51:52,15.08838516,0.000115,53.2158,147.7322,87.0339,273.0785,0.00014475,2.017e-05,0.0,0 STARLINK-4159,1 53292U 22086BC  23130.32768778  .00002017  00000-0  14475-3 0  9990,2 53292  53.2158 147.7322 0001150  87.0339 273.0785 15.08838516 45039,6917.885,95.438,540.545,538.954,0.0
53292.0,STARLINK-4159,PAYLOAD,2023-05-11 07:42:39,15.08841611,0.0001203,53.2161,143.2718,90.137,269.976,5.9534e-05,6.6e-06,0.0,0 STARLINK-4159,1 53292U 22086BC  23131.32128765  .00000660  00000-0  59534-4 0  9995,2 53292  53.2161 143.2718 0001203  90.1370 269.9760 15.08841611 45185,6917.875,95.437,540.573,538.908,0.0
53292.0,STARLINK-4159,PAYLOAD,2023-05-11 17:14:58,15.08838772,0.0001146,53.2157,141.4855,83.3031,276.8092,6.6416e-05,7.69e-06,0.0,0 STARLINK-4159,1 53292U 22086BC  23131.71872937  .00000769  00000-0  66416-4 0  9992,2 53292  53.2157 141.4855 0001146  83.3031 276.8092 15.08838772 45084,6917.884,95.438,540.542,538.956,0.0
53292.0,STARLINK-4159,PAYLOAD,2023-05-12 04:22:40,15.0883484,0.0001226,53.2161,139.4062,104.0986,256.0143,4.5429e-05,4.35e-06,0.0,0 STARLINK-4159,1 53292U 22086BC  23132.18241333  .00000435  00000-0  45429-4 0  9995,2 53292  53.2161 139.4062 0001226 104.0986 256.0143 15.08834840 45310,6917.896,95.438,540.609,538.913,0.0
53292.0,STARLINK-4159,PAYLOAD,2023-05-12 17:05:45,15.08836367,0.0001209,53.2162,137.0278,102.1479,257.9648,5.0624e-05,5.18e-06,0.0,0 STARLINK-4159,1 53292U 22086BC  23132.71233345  .00000518  00000-0  50624-4 0  9993,2 53292  53.2162 137.0278 0001209 102.1479 257.9648 15.08836367 45395,6917.891,95.438,540.593,538.92,0.0
53292.0,STARLINK-4159,PAYLOAD,2023-05-13 05:48:50,15.08838882,0.0001197,53.2164,134.6482,100.1095,260.0032,7.808e-05,9.55e-06,0.0,0 STARLINK-4159,1 53292U 22086BC  23133.24225219  .00000955  00000-0  78080-4 0  9994,2 53292  53.2164 134.6482 0001197 100.1095 260.0032 15.08838882 45313,6917.884,95.438,540.577,538.921,0.0
53292.0,STARLINK-4159,PAYLOAD,2023-05-13 07:24:13,15.08839376,0.0001193,53.2163,134.3508,99.503,260.6097,8.0435e-05,9.92e-06,0.0,0 STARLINK-4159,1 53292U 22086BC  23133.30849190  .00000992  00000-0  80435-4 0  9999,2 53292  53.2163 134.3508 0001193  99.5030 260.6097 15.08839376 45488,6917.882,95.438,540.573,538.922,0.0
53292.0,STARLINK-4159,PAYLOAD,2023-05-14 07:15:00,15.08838658,0.0001153,53.2162,129.8886,89.9046,270.2078,7.6285e-05,9.26e-06,0.0,0 STARLINK-4159,1 53292U 22086BC  23134.30209453  .00000926  00000-0  76285-4 0  9997,2 53292  53.2162 129.8886 0001153  89.9046 270.2078 15.08838658 45478,6917.884,95.438,540.547,538.952,0.0
53292.0,STARLINK-4159,PAYLOAD,2023-05-15 07:05:48,15.08838502,0.0001225,53.2166,125.4296,87.4302,272.6831,4.4629e-05,4.22e-06,0.0,0 STARLINK-4159,1 53292U 22086BC  23135.29569710  .00000422  00000-0  44629-4 0  9999,2 53292  53.2166 125.4296 0001225  87.4302 272.6831 15.08838502 45782,6917.885,95.438,540.597,538.903,0.0
53292.0,STARLINK-4159,PAYLOAD,2023-05-15 16:38:06,15.08839932,0.0001209,53.2166,123.6451,86.5349,273.5781,5.5769e-05,6e-06,0.0,0 STARLINK-4159,1 53292U 22086BC  23135.69313594  .00000600  00000-0  55769-4 0  9995,2 53292  53.2166 123.6451 0001209  86.5349 273.5781 15.08839932 45689,6917.881,95.438,540.582,538.909,0.0
53292.0,STARLINK-4159,PAYLOAD,2023-05-16 05:21:11,15.08843042,0.0001205,53.2166,121.2664,84.9369,275.1761,8.6936e-05,1.096e-05,0.0,0 STARLINK-4159,1 53292U 22086BC  23136.22305296  .00001096  00000-0  86936-4 0  9995,2 53292  53.2166 121.2664 0001205  84.9369 275.1761 15.08843042 45929,6917.871,95.437,540.57,538.902,0.0
53292.0,STARLINK-4159,PAYLOAD,2023-05-16 16:28:53,15.08841881,0.0001193,53.217,119.185,83.7424,276.3704,8.1988e-05,1.017e-05,0.0,0 STARLINK-4159,1 53292U 22086BC  23136.68673300  .00001017  00000-0  81988-4 0  9994,2 53292  53.2170 119.1850 0001193  83.7424 276.3704 15.08841881 45998,6917.875,95.437,540.565,538.914,0.0
53292.0,STARLINK-4159,PAYLOAD,2023-05-17 02:01:12,15.08837975,0.0001213,53.2171,117.4007,85.5923,274.5208,4.0576e-05,3.58e-06,0.0,0 STARLINK-4159,1 53292U 22086BC  23137.08417652  .00000358  00000-0  40576-4 0  9990,2 53292  53.2171 117.4007 0001213  85.5923 274.5208 15.08837975 45898,6917.887,95.438,540.591,538.912,0.0
53292.0,STARLINK-4159,PAYLOAD,2023-05-17 08:22:45,15.08841007,0.0001218,53.2168,116.2103,91.0828,269.0303,6.2011e-05,6.99e-06,0.0,0 STARLINK-4159,1 53292U 22086BC  23137.34913346  .00000699  00000-0  62011-4 0  9996,2 53292  53.2168 116.2103 0001218  91.0828 269.0303 15.08841007 46098,6917.877,95.437,540.585,538.9,0.0
53292.0,STARLINK-4159,PAYLOAD,2023-05-18 08:13:32,15.08840054,0.0001273,53.2171,111.7496,94.5948,265.5189,-5.6666e-06,-3.78e-06,0.0,0 STARLINK-4159,1 53292U 22086BC  23138.34273534 -.00000378  00000-0 -56666-5 0  9991,2 53292  53.2171 111.7496 0001273  94.5948 265.5189 15.08840054 46082,6917.88,95.438,540.626,538.865,0.0
53292.0,STARLINK-4159,PAYLOAD,2023-05-18 22:32:00,15.08834978,0.0001262,53.2171,109.0729,94.4444,265.6693,4.8816e-06,-2.1e-06,0.0,0 STARLINK-4159,1 53292U 22086BC  23138.93889900 -.00000210  00000-0  48816-5 0  9998,2 53292  53.2171 109.0729 0001262  94.4444 265.6693 15.08834978 46336,6917.896,95.438,540.634,538.888,0.0
53292.0,STARLINK-4159,PAYLOAD,2023-05-19 22:22:48,15.08833918,0.0001185,53.2162,104.6132,94.0183,266.0944,1.2277e-05,-9.2e-07,0.0,0 STARLINK-4159,1 53292U 22086BC  23139.93250202 -.00000092  00000-0  12277-4 0  9995,2 53292  53.2162 104.6132 0001185  94.0183 266.0944 15.08833918 46488,6917.899,95.438,540.584,538.944,0.0
53292.0,STARLINK-4159,PAYLOAD,2023-05-20 04:44:20,15.08836484,0.0001205,53.2165,103.4238,94.1854,265.9275,3.324e-05,2.41e-06,0.0,0 STARLINK-4159,1 53292U 22086BC  23140.19746109  .00000241  00000-0  33240-4 0  9999,2 53292  53.2165 103.4238 0001205  94.1854 265.9275 15.08836484 46367,6917.891,95.438,540.59,538.923,0.0
53292.0,STARLINK-4159,PAYLOAD,2023-05-20 17:27:25,15.08841668,0.0001247,53.2169,101.0446,105.4409,254.6721,0.00010801,1.432e-05,0.0,0 STARLINK-4159,1 53292U 22086BC  23140.72737547  .00001432  00000-0  10801-3 0  9994,2 53292  53.2169 101.0446 0001247 105.4409 254.6721 15.08841668 46444,6917.875,95.437,540.603,538.878,0.0
53292.0,STARLINK-4159,PAYLOAD,2023-05-21 06:10:29,15.08849976,0.0001304,53.2171,98.6656,109.1829,250.9304,0.00013905,1.926e-05,0.0,0 STARLINK-4159,1 53292U 22086BC  23141.25728841  .00001926  00000-0  13905-3 0  9996,2 53292  53.2171  98.6656 0001304 109.1829 250.9304 15.08849976 46527,6917.85,95.437,540.617,538.813,0.0
53292.0,STARLINK-4159,PAYLOAD,2023-05-22 01:15:08,15.08832543,0.0001899,53.2172,95.0971,136.4217,223.6926,-7.707e-06,-4.11e-06,0.0,0 STARLINK-4159,1 53292U 22086BC  23142.05218607 -.00000411  00000-0 -77070-5 0  9994,2 53292  53.2172  95.0971 0001899 136.4217 223.6926 15.08832543 46644,6917.903,95.438,541.082,538.454,0.0
53292.0,STARLINK-4159,PAYLOAD,2023-05-22 06:01:18,15.08832682,0.0001249,53.2172,94.2051,107.2178,252.8951,4.9125e-06,-2.1e-06,0.0,0 STARLINK-4159,1 53292U 22086BC  23142.25090866 -.00000210  00000-0  49125-5 0  9997,2 53292  53.2172  94.2051 0001249 107.2178 252.8951 15.08832682 46832,6917.903,95.438,540.632,538.904,0.0
53292.0,STARLINK-4159,PAYLOAD,2023-05-23 02:41:18,15.08841715,0.0001212,53.2171,90.3405,97.076,263.037,1.631e-05,-2.8e-07,0.0,0 STARLINK-4159,1 53292U 22086BC  23143.11202532 -.00000028  00000-0  16310-4 0  9994,2 53292  53.2171  90.3405 0001212  97.0760 263.0370 15.08841715 46807,6917.875,95.437,540.579,538.902,0.0
53292.0,STARLINK-4159,PAYLOAD,2023-05-23 20:10:33,15.08836876,0.0001321,53.2183,87.0697,94.9398,265.1745,0.00014757,2.061e-05,0.0,0 STARLINK-4159,1 53292U 22086BC  23143.84066788  .00002061  00000-0  14757-3 0  9995,2 53292  53.2183  87.0697 0001321  94.9398 265.1745 15.08836876 47071,6917.89,95.438,540.669,538.841,0.0
53292.0,STARLINK-4159,PAYLOAD,2023-05-24 02:32:06,15.08840207,0.0001277,53.2179,85.8813,98.223,261.8906,0.00016526,2.343e-05,0.0,0 STARLINK-4159,1 53292U 22086BC  23144.10562590  .00002343  00000-0  16526-3 0  9996,2 53292  53.2179  85.8813 0001277  98.2230 261.8906 15.08840207 47114,6917.88,95.438,540.628,538.861,0.0
53292.0,STARLINK-4159,PAYLOAD,2023-05-26 00:38:16,15.08845343,0.0001067,53.2178,77.2547,99.8168,260.2945,3.4869e-05,2.67e-06,0.0,0 STARLINK-4159,1 53292U 22086BC  23146.02658475  .00000267  00000-0  34869-4 0  9991,2 53292  53.2178  77.2547 0001067  99.8168 260.2945 15.08845343 47242,6917.864,95.437,540.467,538.991,0.0
53292.0,STARLINK-4159,PAYLOAD,2023-05-26 05:24:26,15.08849035,0.000126,53.2177,76.3625,104.1075,256.0057,3.138e-05,2.12e-06,0.0,0 STARLINK-4159,1 53292U 22086BC  23146.22530151  .00000212  00000-0  31380-4 0  9998,2 53292  53.2177  76.3625 0001260 104.1075 256.0057 15.08849035 47430,6917.853,95.437,540.589,538.846,0.0
